{"fetched_at":"2026-07-23T17:55:32.609Z","source":"https://celestrak.org/NORAD/elements/gp.php?NAME=HAWK&FORMAT=JSON","constellation":"hawkeye-360","records":[{"OBJECT_NAME":"HAWK-A","OBJECT_ID":"2018-099H","EPOCH":"2026-07-23T02:41:49.414272","CLASSIFICATION_TYPE":"U","MEAN_MOTION":15.25042895,"ECCENTRICITY":0.00354326,"INCLINATION":97.3896,"RA_OF_ASC_NODE":255.8841,"ARG_OF_PERICENTER":156.4668,"MEAN_ANOMALY":203.82,"EPHEMERIS_TYPE":0,"NORAD_CAT_ID":43765,"ELEMENT_SET_NO":999,"REV_AT_EPOCH":41857,"BSTAR":0.00030032986,"MEAN_MOTION_DOT":0.00007566,"MEAN_MOTION_DDOT":0},{"OBJECT_NAME":"HAWK-B","OBJECT_ID":"2018-099AN","EPOCH":"2026-07-23T02:40:31.321632","CLASSIFICATION_TYPE":"U","MEAN_MOTION":15.23183557,"ECCENTRICITY":0.00321716,"INCLINATION":97.3944,"RA_OF_ASC_NODE":255.2226,"ARG_OF_PERICENTER":174.1924,"MEAN_ANOMALY":185.9692,"EPHEMERIS_TYPE":0,"NORAD_CAT_ID":43794,"ELEMENT_SET_NO":999,"REV_AT_EPOCH":41850,"BSTAR":0.00027966177,"MEAN_MOTION_DOT":0.00006635,"MEAN_MOTION_DDOT":0},{"OBJECT_NAME":"HAWK-C","OBJECT_ID":"2018-099AT","EPOCH":"2026-07-23T03:18:11.943072","CLASSIFICATION_TYPE":"U","MEAN_MOTION":15.28587276,"ECCENTRICITY":0.00410386,"INCLINATION":97.387,"RA_OF_ASC_NODE":257.0009,"ARG_OF_PERICENTER":156.0749,"MEAN_ANOMALY":204.241,"EPHEMERIS_TYPE":0,"NORAD_CAT_ID":43799,"ELEMENT_SET_NO":999,"REV_AT_EPOCH":41940,"BSTAR":0.00031061262,"MEAN_MOTION_DOT":0.00008782,"MEAN_MOTION_DDOT":0},{"OBJECT_NAME":"HAWK-2C","OBJECT_ID":"2021-006CT","EPOCH":"2026-07-23T01:47:05.717472","CLASSIFICATION_TYPE":"U","MEAN_MOTION":15.35060777,"ECCENTRICITY":0.00085842,"INCLINATION":97.2263,"RA_OF_ASC_NODE":247.6735,"ARG_OF_PERICENTER":78.5306,"MEAN_ANOMALY":281.6901,"EPHEMERIS_TYPE":0,"NORAD_CAT_ID":47502,"ELEMENT_SET_NO":999,"REV_AT_EPOCH":30500,"BSTAR":0.00019685627,"MEAN_MOTION_DOT":0.00006625,"MEAN_MOTION_DDOT":0},{"OBJECT_NAME":"HAWK-2A","OBJECT_ID":"2021-006CW","EPOCH":"2026-07-23T01:50:07.488384","CLASSIFICATION_TYPE":"U","MEAN_MOTION":15.35092659,"ECCENTRICITY":0.00081476,"INCLINATION":97.2307,"RA_OF_ASC_NODE":248.3751,"ARG_OF_PERICENTER":82.1128,"MEAN_ANOMALY":278.104,"EPHEMERIS_TYPE":0,"NORAD_CAT_ID":47505,"ELEMENT_SET_NO":999,"REV_AT_EPOCH":30500,"BSTAR":0.00023708372,"MEAN_MOTION_DOT":0.00008004,"MEAN_MOTION_DDOT":0},{"OBJECT_NAME":"HAWK-2B","OBJECT_ID":"2021-006CZ","EPOCH":"2026-07-23T01:39:51.203232","CLASSIFICATION_TYPE":"U","MEAN_MOTION":15.352184,"ECCENTRICITY":0.00086888,"INCLINATION":97.2178,"RA_OF_ASC_NODE":246.6431,"ARG_OF_PERICENTER":80.48,"MEAN_ANOMALY":279.7426,"EPHEMERIS_TYPE":0,"NORAD_CAT_ID":47508,"ELEMENT_SET_NO":999,"REV_AT_EPOCH":30500,"BSTAR":0.0002321185,"MEAN_MOTION_DOT":0.00007867,"MEAN_MOTION_DDOT":0},{"OBJECT_NAME":"HAWK-3B","OBJECT_ID":"2021-059BE","EPOCH":"2026-07-23T02:53:07.547136","CLASSIFICATION_TYPE":"U","MEAN_MOTION":15.72436622,"ECCENTRICITY":0.00050874,"INCLINATION":97.6638,"RA_OF_ASC_NODE":44.3065,"ARG_OF_PERICENTER":171.9825,"MEAN_ANOMALY":188.152,"EPHEMERIS_TYPE":0,"NORAD_CAT_ID":48931,"ELEMENT_SET_NO":999,"REV_AT_EPOCH":28349,"BSTAR":0.00036649546,"MEAN_MOTION_DOT":0.00048781,"MEAN_MOTION_DDOT":0},{"OBJECT_NAME":"HAWK-3C","OBJECT_ID":"2021-059BX","EPOCH":"2026-07-23T02:52:40.566144","CLASSIFICATION_TYPE":"U","MEAN_MOTION":15.724318,"ECCENTRICITY":0.00054243,"INCLINATION":97.6753,"RA_OF_ASC_NODE":50.0517,"ARG_OF_PERICENTER":171.4962,"MEAN_ANOMALY":188.6393,"EPHEMERIS_TYPE":0,"NORAD_CAT_ID":48948,"ELEMENT_SET_NO":999,"REV_AT_EPOCH":28349,"BSTAR":0.00038986946,"MEAN_MOTION_DOT":0.00051915,"MEAN_MOTION_DDOT":0},{"OBJECT_NAME":"HAWK-3A","OBJECT_ID":"2021-059CG","EPOCH":"2026-07-23T02:52:29.638272","CLASSIFICATION_TYPE":"U","MEAN_MOTION":15.72445401,"ECCENTRICITY":0.00056361,"INCLINATION":97.6701,"RA_OF_ASC_NODE":47.2287,"ARG_OF_PERICENTER":177.0852,"MEAN_ANOMALY":183.0445,"EPHEMERIS_TYPE":0,"NORAD_CAT_ID":48957,"ELEMENT_SET_NO":999,"REV_AT_EPOCH":28349,"BSTAR":0.00038891156,"MEAN_MOTION_DOT":0.0005182,"MEAN_MOTION_DDOT":0},{"OBJECT_NAME":"HAWK-5C","OBJECT_ID":"2022-057Y","EPOCH":"2026-07-22T21:25:06.226752","CLASSIFICATION_TYPE":"U","MEAN_MOTION":15.52531107,"ECCENTRICITY":0.00023546,"INCLINATION":97.6627,"RA_OF_ASC_NODE":5.9014,"ARG_OF_PERICENTER":306.9975,"MEAN_ANOMALY":53.1061,"EPHEMERIS_TYPE":0,"NORAD_CAT_ID":52754,"ELEMENT_SET_NO":999,"REV_AT_EPOCH":23188,"BSTAR":0.0003393022,"MEAN_MOTION_DOT":0.00020726,"MEAN_MOTION_DDOT":0},{"OBJECT_NAME":"HAWK-5B","OBJECT_ID":"2022-057AA","EPOCH":"2026-07-22T21:24:51.848064","CLASSIFICATION_TYPE":"U","MEAN_MOTION":15.52530461,"ECCENTRICITY":0.00030303,"INCLINATION":97.6637,"RA_OF_ASC_NODE":4.256,"ARG_OF_PERICENTER":293.6813,"MEAN_ANOMALY":66.4121,"EPHEMERIS_TYPE":0,"NORAD_CAT_ID":52756,"ELEMENT_SET_NO":999,"REV_AT_EPOCH":23188,"BSTAR":0.00035679289,"MEAN_MOTION_DOT":0.00021804,"MEAN_MOTION_DDOT":0},{"OBJECT_NAME":"HAWK-5A","OBJECT_ID":"2022-057AB","EPOCH":"2026-07-22T16:46:07.559040","CLASSIFICATION_TYPE":"U","MEAN_MOTION":15.52520606,"ECCENTRICITY":0.00029245,"INCLINATION":97.6635,"RA_OF_ASC_NODE":4.8796,"ARG_OF_PERICENTER":300.9143,"MEAN_ANOMALY":59.1822,"EPHEMERIS_TYPE":0,"NORAD_CAT_ID":52757,"ELEMENT_SET_NO":999,"REV_AT_EPOCH":23185,"BSTAR":0.00032107618,"MEAN_MOTION_DOT":0.00019598,"MEAN_MOTION_DDOT":0},{"OBJECT_NAME":"HAWK-6B","OBJECT_ID":"2023-011A","EPOCH":"2026-07-23T04:20:30.169536","CLASSIFICATION_TYPE":"U","MEAN_MOTION":15.23205605,"ECCENTRICITY":0.00045868,"INCLINATION":40.4981,"RA_OF_ASC_NODE":142.0832,"ARG_OF_PERICENTER":280.0862,"MEAN_ANOMALY":79.943,"EPHEMERIS_TYPE":0,"NORAD_CAT_ID":55324,"ELEMENT_SET_NO":999,"REV_AT_EPOCH":19333,"BSTAR":0.00018476158,"MEAN_MOTION_DOT":0.0000427,"MEAN_MOTION_DDOT":0},{"OBJECT_NAME":"HAWK-6C","OBJECT_ID":"2023-011C","EPOCH":"2026-07-23T04:19:35.563008","CLASSIFICATION_TYPE":"U","MEAN_MOTION":15.23204661,"ECCENTRICITY":0.00050523,"INCLINATION":40.4973,"RA_OF_ASC_NODE":138.9222,"ARG_OF_PERICENTER":275.8701,"MEAN_ANOMALY":84.1532,"EPHEMERIS_TYPE":0,"NORAD_CAT_ID":55326,"ELEMENT_SET_NO":999,"REV_AT_EPOCH":19334,"BSTAR":0.00017736657,"MEAN_MOTION_DOT":0.00004091,"MEAN_MOTION_DDOT":0},{"OBJECT_NAME":"HAWK-6A","OBJECT_ID":"2023-011D","EPOCH":"2026-07-23T05:54:03.461760","CLASSIFICATION_TYPE":"U","MEAN_MOTION":15.23206114,"ECCENTRICITY":0.00047795,"INCLINATION":40.4985,"RA_OF_ASC_NODE":140.1672,"ARG_OF_PERICENTER":272.9929,"MEAN_ANOMALY":87.0333,"EPHEMERIS_TYPE":0,"NORAD_CAT_ID":55327,"ELEMENT_SET_NO":999,"REV_AT_EPOCH":19335,"BSTAR":0.00018101733,"MEAN_MOTION_DOT":0.0000418,"MEAN_MOTION_DDOT":0},{"OBJECT_NAME":"HAWK-7A","OBJECT_ID":"2023-054P","EPOCH":"2026-07-23T04:54:54.058176","CLASSIFICATION_TYPE":"U","MEAN_MOTION":15.27693531,"ECCENTRICITY":0.00009453,"INCLINATION":97.2652,"RA_OF_ASC_NODE":90.626,"ARG_OF_PERICENTER":266.9851,"MEAN_ANOMALY":93.1281,"EPHEMERIS_TYPE":0,"NORAD_CAT_ID":56191,"ELEMENT_SET_NO":999,"REV_AT_EPOCH":18252,"BSTAR":0.00020062026,"MEAN_MOTION_DOT":0.00005357,"MEAN_MOTION_DDOT":0}]}
